COSMOS 2425 (716)       
1 29670U 06062A   18235.07847435  .00000020  00000-0  10000-3 0  9991
2 29670  65.2465 290.2770 0020085 341.2129 288.0785  2.13104965 90736
COSMOS 2426 (717)       
1 29671U 06062B   18234.67205640  .00000017  00000-0  10000-3 0  9999
2 29671  65.2631 290.3899 0019136 170.2520   2.5033  2.13102926 90735
COSMOS 2433 (720)       
1 32275U 07052A   18235.27713552 -.00000010  00000-0  10000-3 0  9990
2 32275  65.7210  51.1108 0000805 203.2692  49.5075  2.13104487 84254
COSMOS 2432 (719)       
1 32276U 07052B   18234.56333698 -.00000010  00000-0  10000-3 0  9991
2 32276  65.7302  51.2134 0009828 344.8821  32.1230  2.13103870 84242
COSMOS 2434 (721)       
1 32393U 07065A   18234.77230321  .00000020  00000-0  00000-0 0  9993
2 32393  64.8617 289.2310 0003869 143.7583 329.6247  2.13102968 82955
COSMOS 2436 (723)       
1 32395U 07065C   18235.17860395  .00000022  00000-0  10000-3 0  9996
2 32395  64.8709 289.2677 0013632 354.2850 121.6310  2.13104335 82894
COSMOS 2456 (730)       
1 36111U 09070A   18234.97804920 -.00000029  00000-0  00000+0 0  9996
2 36111  64.1890 168.8185 0005699 306.9577 136.7002  2.13103013 67629
COSMOS 2457 (733)       
1 36112U 09070B   18234.68540914 -.00000029  00000-0  00000-0 0  9996
2 36112  64.1689 168.7382 0005465 184.3814 161.3135  2.13101596 67611
COSMOS 2458 (734)       
1 36113U 09070C   18234.77794362 -.00000029  00000-0  10000-3 0  9999
2 36113  64.1757 168.7484 0002301 342.1074 120.9310  2.13091507 67626
COSMOS 2459 (731)       
1 36400U 10007A   18234.69996613 -.00000012  00000-0  10000-3 0  9996
2 36400  65.6285  50.1837 0025988 356.4848  31.9137  2.13102160 65978
COSMOS 2461 (735)       
1 36401U 10007B   18234.78010255 -.00000012  00000-0  10000-3 0  9996
2 36401  65.6188  50.1547 0008841  74.3089 286.1605  2.13102130 65972
COSMOS 2460 (732)       
1 36402U 10007C   18234.69129826 -.00000012  00000-0  10000-3 0  9992
2 36402  65.6132  50.1260 0002285  95.5034 237.3113  2.13101535 65964
COSMOS 2464 (736)       
1 37139U 10041C   18234.90971575  .00000020  00000-0  00000+0 0  9991
2 37139  64.4634 288.9969 0021972   9.6642  76.9452  2.13102711 62044
COSMOS 2471 (701K)      
1 37372U 11009A   18234.62242757 -.00000012  00000-0  00000+0 0  9999
2 37372  65.6089  50.0725 0007255 222.4501 202.9179  2.13107562 58248
COSMOS 2474 (742)       
1 37829U 11055A   18235.18264323 -.00000027  00000-0  00000+0 0  9998
2 37829  64.5113 169.5566 0009970 251.5707 206.8752  2.13101913 53628
COSMOS 2476 (744)       
1 37867U 11064A   18234.70019524 -.00000028  00000-0  00000-0 0  9990
2 37867  64.4932 169.6338 0019683 244.0029 250.3843  2.13101930 52962
COSMOS 2477 (745)       
1 37868U 11064B   18235.02397940 -.00000028  00000-0  00000+0 0  9997
2 37868  64.4998 169.6721 0017533 245.5516 316.0932  2.13101825 52928
COSMOS 2475 (743)       
1 37869U 11064C   18235.04836611 -.00000027  00000-0  00000+0 0  9992
2 37869  64.5075 169.6663 0022121 268.1010 269.0451  2.13102220 52934
COSMOS 2485 (747)       
1 39155U 13019A   18234.74442962 -.00000028  00000-0  00000-0 0  9994
2 39155  64.6612 169.7558 0020059 239.1452 334.0361  2.13102032 41439
COSMOS 2492 (754)       
1 39620U 14012A   18235.37467466 -.00000013  00000-0  10000-3 0  9999
2 39620  65.5008  49.9788 0012898 337.0140  34.5151  2.13103321 34403
COSMOS 2500 (755)       
1 40001U 14032A   18234.55486510 -.00000013  00000-0  00000-0 0  9992
2 40001  65.4437  49.9719 0005694 183.6113 141.1213  2.13102707 32597
COSMOS 2501 (702K)      
1 40315U 14075A   18235.27493454  .00000019  00000-0  00000+0 0  9996
2 40315  64.1883 290.1723 0017166 208.1949 109.8627  2.13098646 29017
COSMOS 2514 (751)       
1 41330U 16008A   18234.78269398 -.00000013  00000-0  00000-0 0  9991
2 41330  65.2446  49.9998 0008507 202.7610 117.7802  2.13103161 19763
COSMOS 2516 (753)       
1 41554U 16032A   18234.81635139  .00000017  00000-0  00000+0 0  9992
2 41554  64.4084 290.0737 0014256 218.7962  18.5236  2.13101679 17371
COSMOS 2522 (752)       
1 42939U 17055A   18234.68174054  .00000017  00000-0  00000-0 0  9996
2 42939  64.6398 290.0640 0009160 239.6137 120.8652  2.13101860  7130
